[{"OBJECT_NAME":"STARLINK-32655","OBJECT_ID":"2024-229L","EPOCH":"2026-03-09T00:05:52.182816","MEAN_MOTION":15.27575873,"ECCENTRICITY":0.00015851,"INCLINATION":42.9989,"RA_OF_ASC_NODE":274.8291,"ARG_OF_PERICENTER":276.7643,"MEAN_ANOMALY":83.3028,"EPHEMERIS_TYPE":0,"CLASSIFICATION_TYPE":"U","NORAD_CAT_ID":62202,"ELEMENT_SET_NO":999,"REV_AT_EPOCH":7045,"BSTAR":0.00091419138,"MEAN_MOTION_DOT":0.00024977,"MEAN_MOTION_DDOT":0},{"OBJECT_NAME":"FLOCK 4G-6","OBJECT_ID":"2025-009BD","EPOCH":"2026-03-09T17:03:16.973568","MEAN_MOTION":15.27432125,"ECCENTRICITY":0.00023795,"INCLINATION":97.398,"RA_OF_ASC_NODE":150.7943,"ARG_OF_PERICENTER":348.2637,"MEAN_ANOMALY":11.8546,"EPHEMERIS_TYPE":0,"CLASSIFICATION_TYPE":"U","NORAD_CAT_ID":62660,"ELEMENT_SET_NO":999,"REV_AT_EPOCH":12130,"BSTAR":0.00045909501,"MEAN_MOTION_DOT":0.00012261,"MEAN_MOTION_DDOT":0}]
